{
    "links": {
        "self": "http://www.neowsapp.com/rest/v1/neo/3392299?api_key=iIulBulltgU6a56xZRHN4H3l9WmuAYTsLGpBGhQ2"
    },
    "id": "3392299",
    "neo_reference_id": "3392299",
    "name": "(2007 VA3)",
    "designation": "2007 VA3",
    "nasa_jpl_url": "http://ssd.jpl.nasa.gov/sbdb.cgi?sstr=3392299",
    "absolute_magnitude_h": 25.9,
    "estimated_diameter": {
        "kilometers": {
            "estimated_diameter_min": 0.0175612318,
            "estimated_diameter_max": 0.0392681082
        },
        "meters": {
            "estimated_diameter_min": 17.561231848,
            "estimated_diameter_max": 39.2681081809
        },
        "miles": {
            "estimated_diameter_min": 0.0109120402,
            "estimated_diameter_max": 0.0244000636
        },
        "feet": {
            "estimated_diameter_min": 57.6155918963,
            "estimated_diameter_max": 128.8323800441
        }
    },
    "is_potentially_hazardous_asteroid": false,
    "close_approach_data": [
        {
            "close_approach_date": "2007-11-11",
            "close_approach_date_full": "2007-Nov-11 22:31",
            "epoch_date_close_approach": 1194820260000,
            "relative_velocity": {
                "kilometers_per_second": "9.900032639",
                "kilometers_per_hour": "35640.1175003884",
                "miles_per_hour": "22145.3830101719"
            },
            "miss_distance": {
                "astronomical": "0.0180617154",
                "lunar": "7.0260072906",
                "kilometers": "2701994.152386198",
                "miles": "1678941.3127496124"
            },
            "orbiting_body": "Earth"
        }
    ],
    "orbital_data": {
        "orbit_id": "9",
        "orbit_determination_date": "2017-04-06 09:05:27",
        "first_observation_date": "2007-11-02",
        "last_observation_date": "2007-11-07",
        "data_arc_in_days": 5,
        "observations_used": 45,
        "orbit_uncertainty": "8",
        "minimum_orbit_intersection": ".00981939",
        "jupiter_tisserand_invariant": "3.204",
        "epoch_osculation": "2454408.5",
        "eccentricity": ".6113205243206726",
        "semi_major_axis": "2.457623654932591",
        "inclination": "2.905550279293633",
        "ascending_node_longitude": "222.2186711562669",
        "orbital_period": "1407.250768934134",
        "perihelion_distance": ".9552278736163117",
        "perihelion_argument": "216.3380148314261",
        "aphelion_distance": "3.960019436248871",
        "perihelion_time": "2454438.678530492877",
        "mean_anomaly": "352.2797903420835",
        "mean_motion": ".255817945136152",
        "equinox": "J2000",
        "orbit_class": {
            "orbit_class_type": "APO",
            "orbit_class_description": "Near-Earth asteroid orbits which cross the Earth’s orbit similar to that of 1862 Apollo",
            "orbit_class_range": "a (semi-major axis) > 1.0 AU; q (perihelion) < 1.017 AU"
        }
    },
    "is_sentry_object": false
}